ORBCOMM FM05            
1 25117U 97084F   24268.53511546  .00004241  00000+0  12766-2 0  9990
2 25117  45.0138 201.7292 0003488 336.6520  23.4172 14.43751884402189
ORBCOMM FM06            
1 25118U 97084G   24268.58779323  .00004525  00000+0  13557-2 0  9999
2 25118  45.0131 201.5456 0002721 348.4023 181.4325 14.43871134403100
ORBCOMM FM07            
1 25119U 97084H   24268.27887025  .00003884  00000+0  11726-2 0  9998
2 25119  45.0127 203.6574 0004123 327.1434  32.9160 14.43755494403059
ORBCOMM FM03            
1 25158U 98007B   24268.52926627  .00001983  00000+0  76307-3 0  9992
2 25158 107.9730 310.3845 0046528 350.5176   9.5081 14.32937357385964
ORBCOMM FM04            
1 25159U 98007C   24268.56200726  .00001951  00000+0  74920-3 0  9996
2 25159 107.9712 313.4857 0042194 347.7517  12.2593 14.33207486386148
ORBCOMM FM17            
1 25413U 98046A   24268.51401544  .00002396  00000+0  90448-3 0  9995
2 25413  44.9942  70.3797 0001600 289.0167  71.0506 14.33774085365029
ORBCOMM FM18            
1 25414U 98046B   24268.51356167  .00002889  00000+0  10176-2 0  9992
2 25414  44.9945 354.4621 0002932 350.7721   9.3072 14.36766862366015
ORBCOMM FM19            
1 25415U 98046C   24268.56806929  .00003143  00000+0  11063-2 0  9994
2 25415  44.9954 355.8025 0002352 325.3135  49.7314 14.36598675366182
